1 00003U 21001A   21274.00000000  .00000000  00000-0  50000-4 0  9993
2 00003  104.0000  233.3000  0012306  100.0000  102.0000  14.99449996 
